#dP2019  9  2  0  0  0.00000000      96 __u+U IGS08 FIT  IAC
## 2069  86400.00000000   900.00000000 58728 0.0000000000000
+  115   C01C02C03C04C05C06C07C08C09C10C11C12C13C14C16C19C20
+        C21C22C23C24C25C26C27C28C29C30C32C33C34C35C36C37E01
+        E02E03E04E05E07E08E09E11E12E13E14E15E18E19E21E24E25
+        E26E27E30E31E33E36G01G02G03G04G05G06G07G08G09G10G11
+        G12G13G14G15G16G17G18G19G20G21G22G23G24G25G26G27G28
+        G29G30G31G32J01J02J03J07R01R02R03R05R07R08R09R11R12
+        R13R14R15R16R17R18R19R20R21R22R23R24R26  0  0  0  0
++        13 13  0 13 12  8  8  8  8  8  7  7  7  7  8  7  7
++         7  7  8  8  7  7  8  8  8  8  8  7  8  9  8  9  4
++         4  4  4  4  5  4  4  4  4  4  4  4  4  4  4  4  4
++         4  4  4  4  5  4  3  3  3  4  3  3  3  3  3  3  3
++         3  3  3  3  3  3  3  3  3  3  3  3  3  3  3  3  3
++         3  3  3  3  8  8  8 13  6  7  5  5  5  5  5  5  5
++         6  5  5  6  5  5  6  6  5  5  5  6  9  0  0  0  0
%c M  cc GPS ccc cccc cccc cccc cccc ccccc ccccc ccccc ccccc
%c cc cc ccc ccc cccc cccc cccc cccc ccccc ccccc ccccc ccccc
%f  1.2500000  1.025000000  0.00000000000  0.000000000000000
%f  0.0000000  0.000000000  0.00000000000  0.000000000000000
%i    0    0    0    0      0      0      0      0         0
%i    0    0    0    0      0      0      0      0         0
/* INFORMATION & ANALYSIS CENTER (IAC)            FINAL DATA
/* S/V CLOCKS ARE ALIGNED TO GPS & GLONASS TIME RESPECTIVELY
/* USING THE BROADCAST EPHEMERIS                            
/* PCV:IGS14_2062 OL/AL:FES2004  NONE     YN ORB:CoN CLK:CoN
*  2019 09 02  8 30  0.00000000
PC01 -32320.128052  27068.368889   -901.117994    236.671093
PC02   4322.688720  41929.883900    890.036587    -66.722528
PC03      0.000000      0.000000      0.000000 999999.999999
PC04 -39637.007926  14367.051742   -372.187718 999999.999999
PC05  21940.480209  36014.543151   1132.099270   -155.949096
PC06  -7943.800932  35618.401012  21786.781749    436.612486
PC07 -15588.954561  22211.797485 -32163.721733   -104.138279
PC08 -24442.780353  32516.702912  10490.624786     -0.927497
PC09    765.227150  41309.536528   9517.552798    -63.756581
PC10   -958.171840  26100.445004 -32889.033039   -138.094257
PC11 -14269.302627  15952.310138 -17819.238599    179.209025
PC12 -11532.364106 -15017.892065 -20470.223167   -239.382054
PC13 -12803.560808  33440.451320  22094.325798   -919.930282
PC14 -22713.444994  -3368.296352  15893.525529    506.446669
PC16  -5189.359291  36970.021195  19800.172971   -876.449035
PC19   8889.670223 -13248.041573 -22873.379433    187.735172
PC20  22066.937367   2005.142411 -16929.590454    -24.701628
PC21 -22481.367097 -16538.205834    774.686699    332.685066
PC22  -9643.622370 -21065.485477 -15577.102851    -55.446159
PC23    -95.527152  16918.126161 -22179.908765   -934.128128
PC24 -26614.201623   6435.739956   5356.345684   -913.553691
PC25 -18330.470954  17148.608822 -12177.214822   -334.887048
PC26 -19217.307017  -6523.874773  19145.358600    372.026073
PC27  11800.129348  15201.561385  20198.320068    182.611847
PC28    418.224425  27103.087715   6601.594370    176.521106
PC29  10287.322960 -23593.524608  10780.585991    112.806444
PC30  16079.257829  -5979.127801  22005.824917    185.658014
PC32  22577.094075  16373.222663   -757.337344   -916.069945
PC33  -8944.342385  13257.833318  22872.411691   -354.021671
PC34 -16133.346601   6266.812652 -21899.363341    -44.807956
PC35  -1293.583450 -27089.003001  -6519.193776   -295.480201
PC36  18820.637165 -16692.896298  12095.888395   -780.207231
PC37  18678.567291   7281.335284 -19384.794737   -432.042227
PE01  25363.921508   8800.595374 -12448.298708   -681.423780
PE02 -25405.580157  -8772.536817  12405.928566     76.877741
PE03 -19834.507794 -18403.173374  12027.779665   -206.297863
PE04  18265.924202  -1021.847300 -23263.080502   -357.084402
PE05  -9778.855717 -27206.464385  -6365.418508   -452.185837
PE07  -5952.114507  20049.615129  20949.476466   -258.218301
PE08 -18094.483578   1227.388769  23401.119384   6298.040860
PE09   5622.904314 -20093.774862 -20996.120432   6329.095241
PE11  15217.227097 -25382.124725    265.820146   5605.571671
PE12  20587.578838 -11411.215448  17939.124447   6218.396583
PE13 -15179.273173  25406.630909   -413.440549    392.299104
PE14  14605.401436   8641.676071  16443.415579   -704.514279
PE15 -20500.404253  11879.817264 -17737.235302    897.027763
PE18 -20782.061303  -4323.842033 -24631.359022   -798.926653
PE19  19276.470898  19940.159131 -10336.646915     -4.186892
PE21   7092.322402  15963.263251 -23889.446394   -552.658431
PE24  15266.759668 -13780.490026  21288.147815   5892.355174
PE25  -7021.887088 -15981.043288  23918.691313   1691.662284
PE26   -925.152698  24059.949512  17207.878933   4154.207438
PE27 -15375.727331  13756.476415 -21217.575852    395.729762
PE30 -28740.846172   3407.714106  -6207.210108   4579.882451
PE31  28741.248010  -3505.307046   6134.526984   -467.950206
PE33  13823.186107   8636.387814  24708.982564   -469.874148
PE36    943.698853 -24073.057834 -17200.267095    667.233399
PG01  10758.696433 -20460.993815 -12986.171789   -115.594891
PG02 -21074.387296  14741.927864  -5714.811326   -296.202293
PG03    772.047579 -15614.123514 -21536.163668     -6.916791
PG04  14940.442748  -2686.245362  21514.756817    136.539602
PG05 -20681.921623   5129.696702  15848.893855     -1.078858
PG06 -19566.551040    748.056265 -17918.512029    -44.195727
PG07  -4415.626923 -15749.535824  21117.797715    -97.806324
PG08   6344.392064 -20908.015696  14984.056086     -4.978078
PG09  -8025.978116 -24938.364407   4302.340318    -21.134970
PG10  23725.617315  11489.894739   4136.934919    -37.510274
PG11   7453.278115 -25358.274930  -4420.117648   -518.580924
PG12  -5500.193313  13806.024046 -22227.845515    208.090284
PG13 -12916.696792  12025.588309  19717.858474    -46.531255
PG14  15225.964828   3814.456167 -21124.624559    -63.468552
PG15  -4487.977852  21895.761091  13769.552518   -289.891372
PG16  21587.565598  -1457.609045  15503.081878    -70.402440
PG17 -13778.202177 -13207.861557 -18094.090166    117.961599
PG18  16292.244160 -20367.494268  -5200.842164     82.600580
PG19 -14839.875871  -6199.955485 -21432.064579   -272.784375
PG20  18408.161616  14054.427152  13048.822863    526.715310
PG21   9275.880289  12973.476602  22045.013743   -125.861167
PG22   8952.243322 -13628.258800 -20732.654566   -750.582548
PG23     -5.682734 -25329.147071  -6950.986196   -169.056946
PG24 -11830.936578  21392.545408 -10111.826439     -1.596479
PG25   9884.400229  16911.844989 -18264.240398    -10.400981
PG26  25607.874232   3495.349299   6511.119225     29.429683
PG27  12983.804954  -8672.312693  21323.851864    -42.672941
PG28 -22376.118547 -13678.242048   4430.995981    763.296910
PG29   4277.958541  26127.394132   1932.504770    108.828032
PG30 -14539.833726  -7950.139936  20824.037161    -32.177476
PG31  20992.892078  -2052.111043 -16413.726421     13.178821
PG32  15148.443034  12610.291393 -17797.128390     41.946487
PJ01 -25137.871854  23129.063735  29834.159171   -252.418166
PJ02 -35298.201035  17557.593439 -10479.911957     -3.321263
PJ03 -20432.359000  28339.745328 -18973.658803     -1.325108
PJ07 -25368.054316  33674.446638     22.428948     -0.009631
PR01   1234.268739  15660.303619  20092.235686     49.098805
PR02  15604.673862  19959.571225   3235.491246    386.153907
PR03  18502.775029  10947.038100 -13726.046370      0.937137
PR05  -3242.769762 -16906.223310 -18806.210317     34.959868
PR07 -18380.953408 -10448.100153  14276.014319    -25.993529
PR08 -10755.737563   4227.102072  22789.965359     15.864553
PR09 -13937.898217  -7175.458846  20164.806044     88.524275
PR11 -22094.408823   9022.923289  -9057.479706    -78.008044
PR12  -8162.252977  11834.877282 -21032.268976     58.051706
PR13  11559.331234   7830.184585 -21354.382409    -27.862892
PR14  23835.113807   -466.347794  -9027.253881     42.568810
PR15  22512.079881  -8623.762472   8356.923271    103.790451
PR16   7808.816210 -12151.422432  21038.672352      5.140123
PR17  10606.932734   1701.695611  23140.751076    256.888331
PR18  12767.026594 -15316.980987  15886.988170      6.014210
PR19   8756.998829 -23963.783854    159.304616    -51.615848
PR20  -1603.514467 -18482.609742 -17486.194150   -389.235804
PR21 -10737.753303   -986.731797 -23119.563959    -69.822727
PR22 -12514.860671  17668.414530 -13580.696997    -35.845289
PR23  -5613.339119  24238.230102   5599.562281    251.234379
PR24   3065.328614  17040.089309  18705.273700   -184.289347
PR26   -163.259385 -20586.540752 -15075.329243     -7.746957
EOF
